CCSDS_OMM_VERS = 2.0
CREATION_DATE  = 
ORIGINATOR     = 

OBJECT_NAME    = SL-14 R/B
OBJECT_ID      = 1986-046B
CENTER_NAME    = EARTH
REF_FRAME      = TEME
TIME_SYSTEM    = UTC
MEAN_ELEMENT_THEORY = SGP/SGP4

EPOCH          = 2026-02-16T04:28:09.597216
MEAN_MOTION    = 14.85569211
ECCENTRICITY   = .0021704
INCLINATION    = 82.4801
RA_OF_ASC_NODE = 100.5045
ARG_OF_PERICENTER = 301.0381
MEAN_ANOMALY   = 58.8704

EPHEMERIS_TYPE = 0
CLASSIFICATION_TYPE = U
NORAD_CAT_ID   = 16792
ELEMENT_SET_NO = 999
REV_AT_EPOCH   = 12321
BSTAR          = .53023E-4
MEAN_MOTION_DOT = .484E-5
MEAN_MOTION_DDOT = 0

CCSDS_OMM_VERS = 2.0
CREATION_DATE  = 
ORIGINATOR     = 

OBJECT_NAME    = SL-14 R/B
OBJECT_ID      = 1986-055B
CENTER_NAME    = EARTH
REF_FRAME      = TEME
TIME_SYSTEM    = UTC
MEAN_ELEMENT_THEORY = SGP/SGP4

EPOCH          = 2026-02-15T18:56:21.058368
MEAN_MOTION    = 14.85620220
ECCENTRICITY   = .00199995
INCLINATION    = 82.5231
RA_OF_ASC_NODE = 147.2532
ARG_OF_PERICENTER = 47.9697
MEAN_ANOMALY   = 70.5664

EPHEMERIS_TYPE = 0
CLASSIFICATION_TYPE = U
NORAD_CAT_ID   = 16882
ELEMENT_SET_NO = 999
REV_AT_EPOCH   = 11611
BSTAR          = .60213927E-4
MEAN_MOTION_DOT = .547E-5
MEAN_MOTION_DDOT = 0

CCSDS_OMM_VERS = 2.0
CREATION_DATE  = 
ORIGINATOR     = 

OBJECT_NAME    = AJISAI (EGS)
OBJECT_ID      = 1986-061A
CENTER_NAME    = EARTH
REF_FRAME      = TEME
TIME_SYSTEM    = UTC
MEAN_ELEMENT_THEORY = SGP/SGP4

EPOCH          = 2026-02-16T02:38:21.706944
MEAN_MOTION    = 12.44515334
ECCENTRICITY   = .0011231
INCLINATION    = 50.0082
RA_OF_ASC_NODE = 159.7053
ARG_OF_PERICENTER = 231.3589
MEAN_ANOMALY   = 184.7423

EPHEMERIS_TYPE = 0
CLASSIFICATION_TYPE = U
NORAD_CAT_ID   = 16908
ELEMENT_SET_NO = 999
REV_AT_EPOCH   = 46531
BSTAR          = -.93604E-4
MEAN_MOTION_DOT = -.111E-5
MEAN_MOTION_DDOT = 0

CCSDS_OMM_VERS = 2.0
CREATION_DATE  = 
ORIGINATOR     = 

OBJECT_NAME    = COSMOS 1812
OBJECT_ID      = 1987-003A
CENTER_NAME    = EARTH
REF_FRAME      = TEME
TIME_SYSTEM    = UTC
MEAN_ELEMENT_THEORY = SGP/SGP4

EPOCH          = 2026-02-16T03:09:03.830976
MEAN_MOTION    = 16.00145517
ECCENTRICITY   = .0002533
INCLINATION    = 82.4754
RA_OF_ASC_NODE = 220.1835
ARG_OF_PERICENTER = 304.7451
MEAN_ANOMALY   = 55.3588

EPHEMERIS_TYPE = 0
CLASSIFICATION_TYPE = U
NORAD_CAT_ID   = 17295
ELEMENT_SET_NO = 999
REV_AT_EPOCH   = 14101
BSTAR          = .74883E-3
MEAN_MOTION_DOT = .38264E-2
MEAN_MOTION_DDOT = .6059E-4

CCSDS_OMM_VERS = 2.0
CREATION_DATE  = 
ORIGINATOR     = 

OBJECT_NAME    = SL-14 R/B
OBJECT_ID      = 1987-024B
CENTER_NAME    = EARTH
REF_FRAME      = TEME
TIME_SYSTEM    = UTC
MEAN_ELEMENT_THEORY = SGP/SGP4

EPOCH          = 2026-02-16T03:50:36.210912
MEAN_MOTION    = 14.86111429
ECCENTRICITY   = .0017495
INCLINATION    = 82.5278
RA_OF_ASC_NODE = 113.0006
ARG_OF_PERICENTER = 336.6697
MEAN_ANOMALY   = 23.3723

EPHEMERIS_TYPE = 0
CLASSIFICATION_TYPE = U
NORAD_CAT_ID   = 17567
ELEMENT_SET_NO = 999
REV_AT_EPOCH   = 8493
BSTAR          = .52948E-4
MEAN_MOTION_DOT = .489E-5
MEAN_MOTION_DDOT = 0

CCSDS_OMM_VERS = 2.0
CREATION_DATE  = 
ORIGINATOR     = 

OBJECT_NAME    = COSMOS 1833
OBJECT_ID      = 1987-027A
CENTER_NAME    = EARTH
REF_FRAME      = TEME
TIME_SYSTEM    = UTC
MEAN_ELEMENT_THEORY = SGP/SGP4

EPOCH          = 2026-02-16T03:04:09.672672
MEAN_MOTION    = 14.13057355
ECCENTRICITY   = .0024892
INCLINATION    = 70.9225
RA_OF_ASC_NODE = 11.3323
ARG_OF_PERICENTER = 243.6332
MEAN_ANOMALY   = 116.2233

EPHEMERIS_TYPE = 0
CLASSIFICATION_TYPE = U
NORAD_CAT_ID   = 17589
ELEMENT_SET_NO = 999
REV_AT_EPOCH   = 727
BSTAR          = .74821E-5
MEAN_MOTION_DOT = -.34E-6
MEAN_MOTION_DDOT = 0

CCSDS_OMM_VERS = 2.0
CREATION_DATE  = 
ORIGINATOR     = 

OBJECT_NAME    = SL-16 R/B
OBJECT_ID      = 1987-027B
CENTER_NAME    = EARTH
REF_FRAME      = TEME
TIME_SYSTEM    = UTC
MEAN_ELEMENT_THEORY = SGP/SGP4

EPOCH          = 2026-02-16T03:56:11.048928
MEAN_MOTION    = 14.17163152
ECCENTRICITY   = .0004643
INCLINATION    = 71.0043
RA_OF_ASC_NODE = 321.8547
ARG_OF_PERICENTER = 180.8745
MEAN_ANOMALY   = 179.2372

EPHEMERIS_TYPE = 0
CLASSIFICATION_TYPE = U
NORAD_CAT_ID   = 17590
ELEMENT_SET_NO = 999
REV_AT_EPOCH   = 1229
BSTAR          = .82124E-4
MEAN_MOTION_DOT = .118E-5
MEAN_MOTION_DDOT = 0

CCSDS_OMM_VERS = 2.0
CREATION_DATE  = 
ORIGINATOR     = 

OBJECT_NAME    = SL-14 R/B
OBJECT_ID      = 1987-038B
CENTER_NAME    = EARTH
REF_FRAME      = TEME
TIME_SYSTEM    = UTC
MEAN_ELEMENT_THEORY = SGP/SGP4

EPOCH          = 2026-02-16T03:27:23.040288
MEAN_MOTION    = 14.85348670
ECCENTRICITY   = .0017896
INCLINATION    = 82.5038
RA_OF_ASC_NODE = 317.1010
ARG_OF_PERICENTER = 233.2973
MEAN_ANOMALY   = 126.6599

EPHEMERIS_TYPE = 0
CLASSIFICATION_TYPE = U
NORAD_CAT_ID   = 17912
ELEMENT_SET_NO = 999
REV_AT_EPOCH   = 7603
BSTAR          = .59994E-4
MEAN_MOTION_DOT = .541E-5
MEAN_MOTION_DDOT = 0

CCSDS_OMM_VERS = 2.0
CREATION_DATE  = 
ORIGINATOR     = 

OBJECT_NAME    = COSMOS 1844
OBJECT_ID      = 1987-041A
CENTER_NAME    = EARTH
REF_FRAME      = TEME
TIME_SYSTEM    = UTC
MEAN_ELEMENT_THEORY = SGP/SGP4

EPOCH          = 2026-02-16T04:27:43.392096
MEAN_MOTION    = 14.14547880
ECCENTRICITY   = .0029014
INCLINATION    = 70.8979
RA_OF_ASC_NODE = 79.5344
ARG_OF_PERICENTER = 52.2731
MEAN_ANOMALY   = 308.1014

EPHEMERIS_TYPE = 0
CLASSIFICATION_TYPE = U
NORAD_CAT_ID   = 17973
ELEMENT_SET_NO = 999
REV_AT_EPOCH   = 54
BSTAR          = .23683E-3
MEAN_MOTION_DOT = .408E-5
MEAN_MOTION_DDOT = 0

CCSDS_OMM_VERS = 2.0
CREATION_DATE  = 
ORIGINATOR     = 

OBJECT_NAME    = SL-14 R/B
OBJECT_ID      = 1987-055B
CENTER_NAME    = EARTH
REF_FRAME      = TEME
TIME_SYSTEM    = UTC
MEAN_ELEMENT_THEORY = SGP/SGP4

EPOCH          = 2026-02-15T23:45:38.055456
MEAN_MOTION    = 14.85601734
ECCENTRICITY   = .0022365
INCLINATION    = 82.5007
RA_OF_ASC_NODE = 9.4782
ARG_OF_PERICENTER = 85.5555
MEAN_ANOMALY   = 274.8215

EPHEMERIS_TYPE = 0
CLASSIFICATION_TYPE = U
NORAD_CAT_ID   = 18153
ELEMENT_SET_NO = 999
REV_AT_EPOCH   = 6671
BSTAR          = .66778E-4
MEAN_MOTION_DOT = .605E-5
MEAN_MOTION_DDOT = 0

CCSDS_OMM_VERS = 2.0
CREATION_DATE  = 
ORIGINATOR     = 

OBJECT_NAME    = COSMOS 1867
OBJECT_ID      = 1987-060A
CENTER_NAME    = EARTH
REF_FRAME      = TEME
TIME_SYSTEM    = UTC
MEAN_ELEMENT_THEORY = SGP/SGP4

EPOCH          = 2026-02-16T03:12:11.693952
MEAN_MOTION    = 14.31499555
ECCENTRICITY   = .0014157
INCLINATION    = 65.0121
RA_OF_ASC_NODE = 7.0701
ARG_OF_PERICENTER = 277.3544
MEAN_ANOMALY   = 82.5931

EPHEMERIS_TYPE = 0
CLASSIFICATION_TYPE = U
NORAD_CAT_ID   = 18187
ELEMENT_SET_NO = 999
REV_AT_EPOCH   = 1685
BSTAR          = .25118E-4
MEAN_MOTION_DOT = -.33E-6
MEAN_MOTION_DDOT = 0

CCSDS_OMM_VERS = 2.0
CREATION_DATE  = 
ORIGINATOR     = 

OBJECT_NAME    = SL-14 R/B
OBJECT_ID      = 1988-001B
CENTER_NAME    = EARTH
REF_FRAME      = TEME
TIME_SYSTEM    = UTC
MEAN_ELEMENT_THEORY = SGP/SGP4

EPOCH          = 2026-02-15T23:36:41.272128
MEAN_MOTION    = 14.85500536
ECCENTRICITY   = .0016945
INCLINATION    = 82.5114
RA_OF_ASC_NODE = 215.7745
ARG_OF_PERICENTER = 313.6567
MEAN_ANOMALY   = 46.3243

EPHEMERIS_TYPE = 0
CLASSIFICATION_TYPE = U
NORAD_CAT_ID   = 18749
ELEMENT_SET_NO = 999
REV_AT_EPOCH   = 3880
BSTAR          = .6126E-4
MEAN_MOTION_DOT = .554E-5
MEAN_MOTION_DDOT = 0

