SL-14 R/B               
1 16792U 86046B   26047.18622219  .00000484  00000+0  53023-4 0  9991
2 16792  82.4801 100.5045 0021704 301.0381  58.8704 14.85569211123218
SL-14 R/B               
1 16882U 86055B   26046.78913262  .00000547  00000+0  60214-4 0  9997
2 16882  82.5231 147.2532 0019999  47.9697  70.5664 14.85620220116119
AJISAI (EGS)            
1 16908U 86061A   26047.10997346 -.00000111  00000+0 -93604-4 0  9993
2 16908  50.0082 159.7053 0011231 231.3589 184.7423 12.44515334465310
COSMOS 1812             
1 17295U 87003A   26047.13129434  .00382640  60590-4  74883-3 0  9998
2 17295  82.4754 220.1835 0002533 304.7451  55.3588 16.00145517141015
SL-14 R/B               
1 17567U 87024B   26047.16014133  .00000489  00000+0  52948-4 0  9997
2 17567  82.5278 113.0006 0017495 336.6697  23.3723 14.86111429 84938
COSMOS 1833             
1 17589U 87027A   26047.12788973 -.00000034  00000+0  74821-5 0  9992
2 17589  70.9225  11.3323 0024892 243.6332 116.2233 14.13057355  7276
SL-16 R/B               
1 17590U 87027B   26047.16401677  .00000118  00000+0  82124-4 0  9997
2 17590  71.0043 321.8547 0004643 180.8745 179.2372 14.17163152 12295
SL-14 R/B               
1 17912U 87038B   26047.14401667  .00000541  00000+0  59994-4 0  9993
2 17912  82.5038 317.1010 0017896 233.2973 126.6599 14.85348670 76031
COSMOS 1844             
1 17973U 87041A   26047.18591889  .00000408  00000+0  23683-3 0  9991
2 17973  70.8979  79.5344 0029014  52.2731 308.1014 14.14547880   545
SL-14 R/B               
1 18153U 87055B   26046.99002379  .00000605  00000+0  66778-4 0  9998
2 18153  82.5007   9.4782 0022365  85.5555 274.8215 14.85601734 66711
COSMOS 1867             
1 18187U 87060A   26047.13346868 -.00000033  00000+0  25118-4 0  9991
2 18187  65.0121   7.0701 0014157 277.3544  82.5931 14.31499555 16851
SL-14 R/B               
1 18749U 88001B   26046.98381102  .00000554  00000+0  61260-4 0  9998
2 18749  82.5114 215.7745 0016945 313.6567  46.3243 14.85500536 38807
